{
  "norad_id": 55475,
  "name": "STARLINK-5650",
  "history": [
    {
      "epoch": "2026-03-28T22:00:01.999584",
      "apogee_km": 505.6092294304017,
      "perigee_km": 503.2079092812528,
      "latitude_deg": 8.96375125773464,
      "longitude_deg": 175.50222175987437,
      "semi_major_axis_km": 6882.545569355827,
      "eccentricity": 0.00017445,
      "inclination_deg": 43.0021,
      "raan_deg": 219.9554,
      "arg_perigee_deg": 272.5027,
      "mean_anomaly_deg": 121.0886,
      "mean_motion_rev_day": 15.20474422
    },
    {
      "epoch": "2026-03-29T04:00:01.999584",
      "apogee_km": 504.73654729286955,
      "perigee_km": 502.3623654654193,
      "latitude_deg": -37.68874414794855,
      "longitude_deg": -160.49777824012563,
      "semi_major_axis_km": 6881.686456379144,
      "eccentricity": 0.0001725,
      "inclination_deg": 43.0026,
      "raan_deg": 218.5569,
      "arg_perigee_deg": 272.7596,
      "mean_anomaly_deg": 50.9901,
      "mean_motion_rev_day": 15.20759156
    }
  ]
}